stk.v.11.0

# WrittenBy    STK_v11.7.1

BEGIN Ephemeris

    NumberOfEphemerisPoints		 2572

    ScenarioEpoch		 16 Jul 2020 03:40:48.000000

# Epoch in JDate format: 2459046.65333333333333
# Epoch in YYDDD format:   20198.15333333333333


    InterpolationMethod		 Lagrange

    InterpolationSamplesM1		 7

    CentralBody		 Earth

    CoordinateSystem		 ICRF

# Time of first point: 16 Jul 2020 03:40:48.000000000 UTCG = 2459046.65333333333333 JDate = 20198.15333333333333 YYDDD

    EphemerisTimePosVel		

 5.3571677999999309e+04  1.8005352177120880e+06 -4.0307856244124882e+06  4.8443300939262342e+06 -3.7339695435709209e+03  4.5124491104227945e+03  5.1395775718607119e+03
 5.3619790999999306e+04  1.6180391880717552e+06 -3.8072118272195128e+06  5.0835374930353593e+06 -3.8500994730646335e+03  4.7786990497996112e+03  4.8012933947902111e+03
 5.3669970999999299e+04  1.4220814569204191e+06 -3.5607961910841465e+06  5.3152658206420224e+06 -3.9577737159138628e+03  5.0396455796358941e+03  4.4318699143142740e+03
 5.3721088999999301e+04  1.2172718321406133e+06 -3.2967768135447735e+06  5.5318505548228826e+06 -4.0529689831122373e+03  5.2869672495222103e+03  4.0394549307603493e+03
 5.3777537999999295e+04  9.8592291540502349e+05 -2.9911517886188370e+06  5.7472397325364444e+06 -4.1406975095205735e+03  5.5373222151147356e+03  3.5889895811420179e+03
 5.3837858999999291e+04  7.3383756072022929e+05 -2.6497522516331659e+06  5.9487663465859536e+06 -4.2138548505485251e+03  5.7772512089045649e+03  3.0899792127712690e+03
 5.3890210999999290e+04  5.1195884069341538e+05 -2.3423806192037198e+06  6.0989082228835393e+06 -4.2598326947374553e+03  5.9614592823185503e+03  2.6440474193093796e+03
 5.3942771999999291e+04  2.8720676305663056e+05 -2.0246863268299617e+06  6.2258889123970522e+06 -4.2894394450239879e+03  6.1232078943692668e+03  2.1861423527772413e+03
 5.3995118999999286e+04  6.2257568386640894e+04 -1.7004544599804701e+06  6.3282036124490481e+06 -4.3023354612002395e+03  6.2605955183959259e+03  1.7217030173013741e+03
 5.4039026999999282e+04 -1.2664852695199093e+05 -1.4233803886822895e+06  6.3951492639423069e+06 -4.3003497384965103e+03  6.3572117125296181e+03  1.3269712686908442e+03
 5.4082659999999283e+04 -3.1403223992207873e+05 -1.1442122233691039e+06  6.4444247277903147e+06 -4.2868134840309167e+03  6.4361224548491355e+03  9.3115832596242853e+02
 5.4130064999999282e+04 -5.1664483370247344e+05 -8.3745857677550474e+05  6.4783162813813752e+06 -4.2590848305365789e+03  6.5022898620346141e+03  4.9833671519409717e+02
 5.4176905999999282e+04 -7.1524405404066260e+05 -5.3174820273237349e+05  6.4916094667554749e+06 -4.2184483400518475e+03  6.5474586912140257e+03  6.9102334027683412e+01
 5.4220622999999272e+04 -8.9861694012607401e+05 -2.4492600942452432e+05  6.4858673659643289e+06 -4.1687573349823479e+03  6.5713673142455054e+03 -3.3174125514295173e+02
 5.4261848999999267e+04 -1.0693342784889236e+06  2.6170058691741026e+04  6.4644109565667296e+06 -4.1116125714263326e+03  6.5777121822962990e+03 -7.0897298547110768e+02
 5.4298568999999268e+04 -1.2192496163336113e+06  2.6760216631203261e+05  6.4322286762182852e+06 -4.0524173237080608e+03  6.5701026305004671e+03 -1.0436021514279441e+03
 5.4335177999999265e+04 -1.3664070911092269e+06  5.0779855671260937e+05  6.3879453806645442e+06 -3.9857310998183370e+03  6.5500909392198982e+03 -1.3752804433991782e+03
 5.4380305999999262e+04 -1.5442292095889165e+06  8.0252094825437758e+05  6.3167203267270662e+06 -3.8931697543070386e+03  6.5084039374450640e+03 -1.7805545563906485e+03
 5.4424900999999263e+04 -1.7156005259564072e+06  1.0915029062034520e+06  6.2284765478648823e+06 -3.7907047634405126e+03  6.4488505575124473e+03 -2.1760969343138659e+03
 5.4470009999999260e+04 -1.8840537659086101e+06  1.3806994452628696e+06  6.1214039874116452e+06 -3.6762249331766793e+03  6.3702020297059917e+03 -2.5700617642015541e+03
 5.4516666999999252e+04 -2.0525969238095796e+06  1.6756429084221981e+06  5.9921331976087904e+06 -3.5466955514527208e+03  6.2696126813007440e+03 -2.9698606626172159e+03
 5.4570306999999251e+04 -2.2385494556036452e+06  2.0083179071667478e+06  5.8207458925608257e+06 -3.3843018490274476e+03  6.1301729456517460e+03 -3.4182809402521557e+03
 5.4630136999999253e+04 -2.4352106368299760e+06  2.3697067881739261e+06  5.6016633136439007e+06 -3.1869136011483615e+03  5.9452513324516713e+03 -3.9021673489029095e+03
 5.4685991999999249e+04 -2.6077242594348416e+06  2.6963180618963600e+06  5.3714990649101827e+06 -2.9879978742014832e+03  5.7454105404148249e+03 -4.3363251599131436e+03
 5.4746913999999240e+04 -2.7827676301176138e+06  3.0389693934781351e+06  5.0934360640037665e+06 -2.7559437436400040e+03  5.4985052541576906e+03 -4.7882093171819306e+03
 5.4805009999999231e+04 -2.9361152631232706e+06  3.3509113111707922e+06  4.8033015972365336e+06 -2.5210464300700701e+03  5.2360436398985485e+03 -5.1959499020743287e+03
 5.4862924999999224e+04 -3.0750458192349887e+06  3.6459732644652138e+06  4.4911952200186579e+06 -2.2747738073586529e+03  4.9493840699386665e+03 -5.5778961128218107e+03
 5.4918973999999223e+04 -3.1956185979373581e+06  3.9150757506089369e+06  4.1687839120526030e+06 -2.0260158439797751e+03  4.6494321354138183e+03 -5.9224833250265128e+03
 5.4976415999999219e+04 -3.3044457466504248e+06  4.1728000308734695e+06  3.8190879060948226e+06 -1.7615986215385769e+03  4.3204176675350473e+03 -6.2484129004531251e+03
 5.5039208999999209e+04 -3.4057352920752270e+06  4.4321919333365215e+06  3.4164051099627446e+06 -1.4630116261874898e+03  3.9375083280582407e+03 -6.5713516561902015e+03
 5.5086410999999200e+04 -3.4693804178793179e+06  4.6109564918074198e+06  3.1009790901359064e+06 -1.2329756426733625e+03  3.6349252344576535e+03 -6.7900785298304554e+03
 5.5134732999999200e+04 -3.5231860804235823e+06  4.7788757970333891e+06  2.7679033216936188e+06 -9.9335754938974333e+02  3.3131507841526973e+03 -6.9917977102674531e+03
 5.5180999999999192e+04 -3.5637753158403207e+06  4.9248346630703080e+06  2.4403643403065521e+06 -7.6074924449213484e+02  2.9946483650780074e+03 -7.1632637663478263e+03
 5.5226297999999188e+04 -3.5930324306266615e+06  5.0532528737132410e+06  2.1124782660390050e+06 -5.3068513612481502e+02  2.6738853058898185e+03 -7.3100668258902169e+03
 5.5272687999999187e+04 -3.6121521699671336e+06  5.1695153252927968e+06  1.7703021173733238e+06 -2.9339661536936512e+02  2.3372125514895097e+03 -7.4383231398557500e+03
 5.5319652999999184e+04 -3.6202696848708550e+06  5.2711323346044645e+06  1.4183645782832799e+06 -5.2185413551605961e+01  1.9889916558647396e+03 -7.5449842338545313e+03
 5.5369714999999174e+04 -3.6164396178999841e+06  5.3612676542915218e+06  1.0383414040763879e+06  2.0516429441867450e+02  1.6108707163747540e+03 -7.6326027472997393e+03
 5.5424475999999173e+04 -3.5975122807744872e+06  5.4380019920192324e+06  6.1845286968447105e+05  4.8587237675830914e+02  1.1906351911092099e+03 -7.6972510126812231e+03
 5.5475185999999165e+04 -3.5663182946518050e+06  5.4884101690272819e+06  2.2723113030648371e+05  7.4405003190832304e+02  7.9684403419667365e+02 -7.7278036262326395e+03
 5.5530071999999163e+04 -3.5178782457065457e+06  5.5203700253715208e+06 -1.9710075632395345e+05  1.0204417183946164e+03  3.6732113577645151e+02 -7.7289621074965298e+03
 5.5583599999999155e+04 -3.4561323637719266e+06  5.5287815382171329e+06 -6.1013207020472141e+05  1.2858291923789163e+03 -5.3148998842661342e+01 -7.6981299779198544e+03
 5.5637002999999146e+04 -3.3805088464691998e+06  5.5147426431404809e+06 -1.0197162305293806e+06  1.5453979822327924e+03 -4.7244756882723567e+02 -7.6360406509618297e+03
 5.5690221999999143e+04 -3.2915169088020879e+06  5.4785189142544530e+06 -1.4237664872508545e+06  1.7978465910428151e+03 -8.8840292715020564e+02 -7.5432856696474128e+03
 5.5741818999999137e+04 -3.1925860403629439e+06  5.4223462223399924e+06 -1.8100294756107256e+06  2.0356945229751063e+03 -1.2882691000107548e+03 -7.4242830624132412e+03
 5.5803816999999130e+04 -3.0577751257359227e+06  5.3277439246321470e+06 -2.2649420676265256e+06  2.3111989094761011e+03 -1.7621166057761088e+03 -7.2440916343816725e+03
 5.5865039999999128e+04 -2.9082620271550491e+06  5.2057743775977055e+06 -2.7020034472191394e+06  2.5708379244643729e+03 -2.2205357743827999e+03 -7.0272431699926155e+03
 5.5921497999999126e+04 -2.7566442121432214e+06  5.0687182946827095e+06 -3.0923116037219716e+06  2.7981214181419987e+03 -2.6327684180217407e+03 -6.7940265953821845e+03
 5.5985736999999128e+04 -2.5689959212445193e+06  4.8849084942717832e+06 -3.5192380268233418e+06  3.0412048224785722e+03 -3.0870992956969176e+03 -6.4912895587164667e+03
 5.6047006999999117e+04 -2.3759825218475694e+06  4.6829153662517779e+06 -3.9071993308338546e+06  3.2564059686832115e+03 -3.5034906083998949e+03 -6.1670732188164257e+03
 5.6112002999999117e+04 -2.1574200177257266e+06  4.4413954610911096e+06 -4.2958861097982228e+06  3.4656344315065103e+03 -3.9246088158717125e+03 -5.7872833073381335e+03
 5.6176560999999107e+04 -1.9275295901035089e+06  4.1751530352498516e+06 -4.6563953031193167e+06  3.6528246968238154e+03 -4.3194631074705812e+03 -5.3757575617575858e+03
 5.6236822999999109e+04 -1.7026295206170154e+06  3.9043277763872985e+06 -4.9680444965778496e+06  3.8080376842367496e+03 -4.6649171926734916e+03 -4.9629546392000120e+03
 5.6297211999999105e+04 -1.4684637166427374e+06  3.6127701944953771e+06 -5.2546132242958173e+06  3.9438589166155866e+03 -4.9868849920960583e+03 -4.5237283803149658e+03
 5.6354237999999103e+04 -1.2403507909804899e+06  3.3202830267560845e+06 -5.5002403201444903e+06  4.0533742377439853e+03 -5.2671865084969540e+03 -4.0875415905778573e+03
 5.6408253999999106e+04 -1.0189914543620412e+06  3.0291053513314384e+06 -5.7094782828858132e+06  4.1398627503753496e+03 -5.5102504303540345e+03 -3.6570618283988251e+03
 5.6463291999999106e+04 -7.8911923570555716e+05  2.7195523626592676e+06 -5.8983272492273822e+06  4.2103648138550361e+03 -5.7344166326086442e+03 -3.2029928503797073e+03
END Ephemeris
